[{"place_id":1884191,"place_name":"\uac00\ub9c8\uc624\ub984","tag":"#\uad00\uad11\uc9c0#\uc790\uc5f0"},{"place_id":1884202,"place_name":"\uac00\uba54\ucc3d(\uc554\uba54)","tag":"#\uad00\uad11\uc9c0#\uc790\uc5f0"},{"place_id":1884505,"place_name":"\uac00\ubb38\uc774\uc624\ub984(\uac10\uc740\uc774\uc624\ub984)","tag":"#\uacbd\uce58\uc5ec\ud589#\uacbd\uce58\uc88b\uc740\uacf3#\uad00\uad11\uc9c0#\uc790\uc5f0#\uc790\uc5f0\ubc1c\uc0dd#\uc790\uc5f0\uc18d\uc73c\ub85c#\uc790\uc5f0\uc88b\uc740\uacf3#\uc790\uc5f0\ud48d\uacbd#\uc790\uc5f0\ud658\uacbd#\uc81c\uc8fc\uc5ec\ud589#\ud790\ub9c1\uc5ec\ud589"},{"place_id":1884521,"place_name":"\uac00\uc0c8\uae30\uc624\ub984","tag":"#\uad00\uad11\uc9c0#\uc790\uc5f0"},{"place_id":1885746,"place_name":"\uac00\uc138\uc624\ub984","tag":"#\uac00\uc138\uc624\ub984#\uad00\uad11\uc9c0#\ub4f1\uc0b0#\uc624\ub984#\uc790\uc5f0#\uc790\uc5f0\uc88b\uc740\uacf3#\uc81c\uc8fc\uad8c"},{"place_id":1885754,"place_name":"\uac00\uc2dc\uc624\ub984","tag":"#\uad00\uad11\uc9c0#\uc790\uc5f0"},{"place_id":126446,"place_name":"\uac00\ud30c\ub3c4","tag":"#2020\ube44\ub300\uba74\uad00\uad11\uc9c0_\uac00\uc744\ud3b8#\uac00\uc871\uacfc\ud568\uaed8#\uac00\ud30c\ub3c4#\uac00\ud30c\ub3c4\uccad\ubcf4\ub9ac#\uad00\uad11\uc9c0#\uc0b0\ucc45#\uc0b0\ucc45\ucf54\uc2a4#\uc544\uc774\uc640\ud568\uaed8#\uc5f0\uc778\uacfc\ud568\uaed8#\uc790\uc5f0#\uccad\ubcf4\ub9ac#\uce5c\uad6c\uc640\ud568\uaed8"},{"place_id":1887368,"place_name":"\uac01\uc2dc\ubc14\uc6b0\uc624\ub984","tag":"#\uac01\uc218\ubc14\uc6b0\uc624\ub984#\uac01\uc2dc\ubc14\uc6b0\uc624\ub984#\uad00\uad11\uc9c0#\uc790\uc5f0#\uc81c\uc8fc\uad8c#\ud559\uc218\ubc14\uc6b0"},{"place_id":1887381,"place_name":"\uac08\ub9c8\ubabb(\uac08\ubafc\ubabb)","tag":"#\uad00\uad11\uc9c0#\uc790\uc5f0"},{"place_id":635593,"place_name":"\uac08\uc911\uc774(\ucc9c\uc5f0\uc5fc\uc0c9\uccb4\ud5d8)","tag":"#\uac00\uc871\uacfc\ud568\uaed8#\uac00\uc871\uccb4\ud5d8#\uad00\uad11\uc9c0#\ub0a8\ub140\ub178\uc18c#\uc544\uc774\uc640\ud568\uaed8#\uc5fc\uc0c9#\uc5fc\uc0c9\ubc95#\uc5fc\uc0c9\uccb4\ud5d8#\uc774\uc0c9\uccb4\ud5d8#\uc804\uc2dc\uc2e4#\uc81c\uc8fc\uac00\ubcfc\ub9cc\ud55c\uacf3#\ucc9c\uc5f0\uc5fc\uc0c9#\uccb4\ud5d8#\uccb4\ud5d8\ud504\ub85c\uadf8\ub7a8"},{"place_id":590415,"place_name":"\uac10\uade4\ubc15\ubb3c\uad00","tag":"#\ubb38\ud654\uc2dc\uc124"},{"place_id":1887493,"place_name":"\uac10\ub0ad\uc624\ub984","tag":"#\uad00\uad11\uc9c0#\uc790\uc5f0"},{"place_id":1887866,"place_name":"\uac11\uc120\uc774\uc624\ub984","tag":"#\uacbd\uce58\uc5ec\ud589#\uacbd\uce58\uc88b\uc740\uacf3#\uad00\uad11\uc9c0#\uc790\uc5f0#\uc790\uc5f0\uc18d\uc73c\ub85c#\uc790\uc5f0\uc5ec\ud589#\uc790\uc5f0\uc88b\uc740\uacf3#\uc790\uc5f0\ud48d\uacbd#\uc790\uc5f0\ud658\uacbd#\ud734\uc2dd\uc5ec\ud589#\ud734\uc2dd\ud558\uae30\uc88b\uc740\uacf3"}]